NORAD_CAT_ID,OBJECT_NAME,OBJECT_TYPE,EPOCH,MEAN_MOTION,ECCENTRICITY,INCLINATION,RA_OF_ASC_NODE,ARG_OF_PERICENTER,MEAN_ANOMALY,BSTAR,MEAN_MOTION_DOT,MEAN_MOTION_DDOT,TLE_LINE0,TLE_LINE1,TLE_LINE2,SEMIMAJOR_AXIS,PERIOD,APOGEE,PERIGEE,DECAYED
50197.0,STARLINK-3267,PAYLOAD,2023-06-20 18:05:39,15.08846747,8.84e-05,53.2175,16.5814,76.1451,283.964,0.00010283,1.349e-05,0.0,0 STARLINK-3267,1 50197U 21125AT  23171.75393290  .00001349  00000-0  10283-3 0  9999,2 50197  53.2175  16.5814 0000884  76.1451 283.9640 15.08846747 86350,6917.86,95.437,540.336,539.113,0.0
50197.0,STARLINK-3267,PAYLOAD,2023-06-20 21:16:25,15.08849178,8.86e-05,53.2172,15.9864,83.875,276.2343,0.00012736,1.74e-05,0.0,0 STARLINK-3267,1 50197U 21125AT  23171.88641089  .00001740  00000-0  12736-3 0  9995,2 50197  53.2172  15.9864 0000886  83.8750 276.2343 15.08849178 86901,6917.852,95.437,540.33,539.104,0.0
50197.0,STARLINK-3267,PAYLOAD,2023-06-21 13:10:17,15.08839126,9.28e-05,53.217,13.0125,88.3721,271.7378,9.2554e-05,1.186e-05,0.0,0 STARLINK-3267,1 50197U 21125AT  23172.54881378  .00001186  00000-0  92554-4 0  9997,2 50197  53.2170  13.0125 0000928  88.3721 271.7378 15.08839126 86475,6917.883,95.438,540.39,539.106,0.0
50197.0,STARLINK-3267,PAYLOAD,2023-06-21 19:31:49,15.08845664,9.19e-05,53.2174,11.8234,90.8974,269.2123,8.5312e-05,1.07e-05,0.0,0 STARLINK-3267,1 50197U 21125AT  23172.81377189  .00001070  00000-0  85312-4 0  9993,2 50197  53.2174  11.8234 0000919  90.8974 269.2123 15.08845664 87042,6917.863,95.437,540.364,539.092,0.0
50197.0,STARLINK-3267,PAYLOAD,2023-06-22 19:22:37,15.08839935,9.71e-05,53.2175,7.3627,83.7923,276.318,0.00015968,2.254e-05,0.0,0 STARLINK-3267,1 50197U 21125AT  23173.80737770  .00002254  00000-0  15968-3 0  9993,2 50197  53.2175   7.3627 0000971  83.7923 276.3180 15.08839935 86665,6917.881,95.438,540.417,539.074,0.0
50197.0,STARLINK-3267,PAYLOAD,2023-06-23 20:48:47,15.08849423,0.0001033,53.2187,2.6029,91.9914,268.1196,0.00018554,2.667e-05,0.0,0 STARLINK-3267,1 50197U 21125AT  23174.86721384  .00002667  00000-0  18554-3 0  9996,2 50197  53.2187   2.6029 0001033  91.9914 268.1196 15.08849423 86820,6917.852,95.437,540.431,539.002,0.0
50197.0,STARLINK-3267,PAYLOAD,2023-06-24 15:53:25,15.08838909,0.0001035,53.2183,359.0355,87.3444,272.7667,9.3071e-05,1.194e-05,0.0,0 STARLINK-3267,1 50197U 21125AT  23175.66209953  .00001194  00000-0  93071-4 0  9990,2 50197  53.2183 359.0355 0001035  87.3444 272.7667 15.08838909 86940,6917.884,95.438,540.465,539.033,0.0
50197.0,STARLINK-3267,PAYLOAD,2023-06-25 20:30:21,15.08847259,0.0001057,53.2188,353.6851,88.1393,271.9721,0.00013144,1.805e-05,0.0,0 STARLINK-3267,1 50197U 21125AT  23176.85441537  .00001805  00000-0  13144-3 0  9999,2 50197  53.2188 353.6851 0001057  88.1393 271.9721 15.08847259 87123,6917.858,95.437,540.454,538.992,0.0
50197.0,STARLINK-3267,PAYLOAD,2023-06-26 15:34:59,15.08835145,8.88e-05,53.2181,350.1201,84.858,275.2513,3.7383e-05,3.07e-06,0.0,0 STARLINK-3267,1 50197U 21125AT  23177.64930316  .00000307  00000-0  37383-4 0  9993,2 50197  53.2181 350.1201 0000888  84.8580 275.2513 15.08835145 87249,6917.895,95.438,540.375,539.146,0.0
50197.0,STARLINK-3267,PAYLOAD,2023-06-27 18:36:32,15.08843263,8.54e-05,53.2173,345.0608,96.1152,263.9937,8.5321e-05,1.071e-05,0.0,0 STARLINK-3267,1 50197U 21125AT  23178.77538015  .00001071  00000-0  85321-4 0  9992,2 50197  53.2173 345.0608 0000854  96.1152 263.9937 15.08843263 87411,6917.87,95.437,540.326,539.145,0.0
50197.0,STARLINK-3267,PAYLOAD,2023-06-28 18:27:20,15.08838343,0.000105,53.2186,340.603,83.4773,276.6339,3.2423e-05,2.28e-06,0.0,0 STARLINK-3267,1 50197U 21125AT  23179.76898495  .00000228  00000-0  32423-4 0  9991,2 50197  53.2186 340.6030 0001050  83.4773 276.6339 15.08838343 87568,6917.885,95.438,540.477,539.024,0.0
50197.0,STARLINK-3267,PAYLOAD,2023-06-30 16:33:31,15.08834543,8.62e-05,53.2191,331.9783,86.5747,273.5344,9.9397e-05,1.294e-05,0.0,0 STARLINK-3267,1 50197U 21125AT  23181.68994815  .00001294  00000-0  99397-4 0  9995,2 50197  53.2191 331.9783 0000862  86.5747 273.5344 15.08834543 87859,6917.897,95.438,540.358,539.166,0.0
50197.0,STARLINK-3267,PAYLOAD,2023-07-01 16:24:18,15.08843257,0.0001003,53.2187,327.5167,94.0173,266.0934,3.1794e-05,2.18e-06,0.0,0 STARLINK-3267,1 50197U 21125AT  23182.68354437  .00000218  00000-0  31794-4 0  9998,2 50197  53.2187 327.5167 0001003  94.0173 266.0934 15.08843257 88008,6917.87,95.437,540.429,539.042,0.0
50197.0,STARLINK-3267,PAYLOAD,2023-07-02 16:15:05,15.08837574,8.96e-05,53.2184,323.056,90.7882,269.3212,0.00012917,1.768e-05,0.0,0 STARLINK-3267,1 50197U 21125AT  23183.67714656  .00001768  00000-0  12917-3 0  9997,2 50197  53.2184 323.0560 0000896  90.7882 269.3212 15.08837574 88158,6917.888,95.438,540.373,539.133,0.0
50197.0,STARLINK-3267,PAYLOAD,2023-07-04 09:35:07,15.08836643,8.56e-05,53.2181,315.3272,87.9384,272.1706,-4.7933e-06,-3.64e-06,0.0,0 STARLINK-3267,1 50197U 21125AT  23185.39939341 -.00000364  00000-0 -47933-5 0  9999,2 50197  53.2181 315.3272 0000856  87.9384 272.1706 15.08836643 88415,6917.891,95.438,540.348,539.163,0.0
50197.0,STARLINK-3267,PAYLOAD,2023-07-04 17:32:02,15.08843284,9.4e-05,53.2182,313.8404,101.5438,258.566,3.7819e-05,3.14e-06,0.0,0 STARLINK-3267,1 50197U 21125AT  23185.73058782  .00000314  00000-0  37819-4 0  9992,2 50197  53.2182 313.8404 0000940 101.5438 258.5660 15.08843284 88464,6917.87,95.437,540.386,539.085,0.0
50197.0,STARLINK-3267,PAYLOAD,2023-07-05 01:28:58,15.08833767,9.31e-05,53.2183,312.3536,94.0611,266.0488,0.00014473,2.016e-05,0.0,0 STARLINK-3267,1 50197U 21125AT  23186.06179198  .00002016  00000-0  14473-3 0  9995,2 50197  53.2183 312.3536 0000931  94.0611 266.0488 15.08833767 88517,6917.899,95.438,540.408,539.12,0.0
50197.0,STARLINK-3267,PAYLOAD,2023-07-06 07:41:18,15.08840664,9.67e-05,53.2183,306.7028,84.5844,275.5258,5.8589e-05,6.45e-06,0.0,0 STARLINK-3267,1 50197U 21125AT  23187.32035241  .00000645  00000-0  58589-4 0  9998,2 50197  53.2183 306.7028 0000967  84.5844 275.5258 15.08840664 88706,6917.878,95.438,540.412,539.074,0.0
50197.0,STARLINK-3267,PAYLOAD,2023-07-07 09:07:28,15.08839717,9.95e-05,53.2184,301.9454,84.1199,275.9907,9.9546e-05,1.297e-05,0.0,0 STARLINK-3267,1 50197U 21125AT  23188.38019094  .00001297  00000-0  99546-4 0  9995,2 50197  53.2184 301.9454 0000995  84.1199 275.9907 15.08839717 88866,6917.881,95.438,540.435,539.058,0.0
50197.0,STARLINK-3267,PAYLOAD,2023-07-07 17:04:23,15.0885208,9.59e-05,53.2184,300.4581,89.7256,270.3846,0.00014941,2.092e-05,0.0,0 STARLINK-3267,1 50197U 21125AT  23188.71138145  .00002092  00000-0  14941-3 0  9990,2 50197  53.2184 300.4581 0000959  89.7256 270.3846 15.08852080 88911,6917.843,95.437,540.372,539.045,0.0
50197.0,STARLINK-3267,PAYLOAD,2023-07-08 01:01:19,15.0884552,9.09e-05,53.2183,298.9711,117.4966,242.6118,9.9578e-05,1.298e-05,0.0,0 STARLINK-3267,1 50197U 21125AT  23189.04258487  .00001298  00000-0  99578-4 0  9996,2 50197  53.2183 298.9711 0000909 117.4966 242.6118 15.08845520 88968,6917.864,95.437,540.357,539.1,0.0
50197.0,STARLINK-3267,PAYLOAD,2023-07-08 16:55:11,15.08835711,0.0001474,53.219,295.9948,122.6284,237.4851,0.00012037,1.628e-05,0.0,0 STARLINK-3267,1 50197U 21125AT  23189.70498952  .00001628  00000-0  12037-3 0  9993,2 50197  53.2190 295.9948 0001474 122.6284 237.4851 15.08835711 89063,6917.893,95.438,540.778,538.739,0.0
50197.0,STARLINK-3267,PAYLOAD,2023-07-09 15:10:35,15.08836147,0.0001059,53.2184,291.8341,92.1133,267.9981,-4.4901e-05,-1.002e-05,0.0,0 STARLINK-3267,1 50197U 21125AT  23190.63235569 -.00001002  00000-0 -44901-4 0  9994,2 50197  53.2184 291.8341 0001059  92.1133 267.9981 15.08836147 89203,6917.892,95.438,540.49,539.025,0.0
50197.0,STARLINK-3267,PAYLOAD,2023-07-10 10:15:11,15.08891162,0.0001324,53.2182,288.2632,85.6583,274.456,-0.00065562,-0.00010722,0.0,0 STARLINK-3267,1 50197U 21125AT  23191.42721663 -.00010722  00000-0 -65562-3 0  9991,2 50197  53.2182 288.2632 0001324  85.6583 274.4560 15.08891162 89322,6917.724,95.434,540.505,538.673,0.0
50197.0,STARLINK-3267,PAYLOAD,2023-07-10 15:01:21,15.08841582,0.0001063,53.2183,287.3711,89.1878,270.9236,9.7985e-05,1.272e-05,0.0,0 STARLINK-3267,1 50197U 21125AT  23191.62594897  .00001272  00000-0  97985-4 0  9993,2 50197  53.2183 287.3711 0001063  89.1878 270.9236 15.08841582 89352,6917.876,95.437,540.476,539.005,0.0
50197.0,STARLINK-3267,PAYLOAD,2023-07-11 06:55:14,15.08833481,0.0001126,53.2181,284.3984,102.4879,257.6239,5.4593e-05,5.81e-06,0.0,0 STARLINK-3267,1 50197U 21125AT  23192.28835698  .00000581  00000-0  54593-4 0  9993,2 50197  53.2181 284.3984 0001126 102.4879 257.6239 15.08833481 89454,6917.9,95.438,540.544,538.986,0.0
50197.0,STARLINK-3267,PAYLOAD,2023-07-11 22:49:05,15.08839756,0.0001042,53.2184,281.4271,94.9124,265.1987,9.1467e-05,1.168e-05,0.0,0 STARLINK-3267,1 50197U 21125AT  23192.95075364  .00001168  00000-0  91467-4 0  9996,2 50197  53.2184 281.4271 0001042  94.9124 265.1987 15.08839756 89555,6917.881,95.438,540.467,539.025,0.0
50197.0,STARLINK-3267,PAYLOAD,2023-07-13 11:22:57,15.08839909,9.25e-05,53.2172,274.5882,97.6717,262.438,2.9333e-05,1.79e-06,0.0,0 STARLINK-3267,1 50197U 21125AT  23194.47427682  .00000179  00000-0  29333-4 0  9993,2 50197  53.2172 274.5882 0000925  97.6717 262.4380 15.08839909 89782,6917.881,95.438,540.386,539.106,0.0
50197.0,STARLINK-3267,PAYLOAD,2023-07-14 09:38:21,15.08836527,0.0001261,53.2175,270.4262,82.42,277.6935,4.2522e-05,3.89e-06,0.0,0 STARLINK-3267,1 50197U 21125AT  23195.40164229  .00000389  00000-0  42522-4 0  9990,2 50197  53.2175 270.4262 0001261  82.4200 277.6935 15.08836527 89928,6917.891,95.438,540.628,538.884,0.0
50197.0,STARLINK-3267,PAYLOAD,2023-07-14 22:21:26,15.08846441,9.69e-05,53.2173,268.047,78.5821,281.528,4.8856e-06,-2.1e-06,0.0,0 STARLINK-3267,1 50197U 21125AT  23195.93155582 -.00000210  00000-0  48856-5 0  9991,2 50197  53.2173 268.0470 0000969  78.5821 281.5280 15.08846441 90003,6917.861,95.437,540.396,539.055,0.0
